[{"OBJECT_NAME":"STARLINK-36422","OBJECT_ID":"2026-003L","EPOCH":"2026-03-09T11:16:21.310176","MEAN_MOTION":15.27586691,"ECCENTRICITY":0.000164,"INCLINATION":43.0012,"RA_OF_ASC_NODE":228.0069,"ARG_OF_PERICENTER":256.6879,"MEAN_ANOMALY":103.379,"EPHEMERIS_TYPE":0,"CLASSIFICATION_TYPE":"U","NORAD_CAT_ID":67344,"ELEMENT_SET_NO":999,"REV_AT_EPOCH":879,"BSTAR":0.0011655825,"MEAN_MOTION_DOT":0.00031958,"MEAN_MOTION_DDOT":0},{"OBJECT_NAME":"TITAN 4B R\/B","OBJECT_ID":"2005-016B","EPOCH":"2026-03-09T20:27:57.848832","MEAN_MOTION":15.42682045,"ECCENTRICITY":0.00616552,"INCLINATION":56.9964,"RA_OF_ASC_NODE":245.9411,"ARG_OF_PERICENTER":20.2929,"MEAN_ANOMALY":340.0555,"EPHEMERIS_TYPE":0,"CLASSIFICATION_TYPE":"U","NORAD_CAT_ID":28647,"ELEMENT_SET_NO":999,"REV_AT_EPOCH":37707,"BSTAR":0.00046483736,"MEAN_MOTION_DOT":0.0002164,"MEAN_MOTION_DDOT":0}]
